NORAD_CAT_ID,OBJECT_NAME,OBJECT_TYPE,EPOCH,MEAN_MOTION,ECCENTRICITY,INCLINATION,RA_OF_ASC_NODE,ARG_OF_PERICENTER,MEAN_ANOMALY,BSTAR,MEAN_MOTION_DOT,MEAN_MOTION_DDOT,TLE_LINE0,TLE_LINE1,TLE_LINE2,SEMIMAJOR_AXIS,PERIOD,APOGEE,PERIGEE,DECAYED
54194.0,STARLINK-5271,PAYLOAD,2024-01-09 01:59:18,15.0884018,0.0001424,53.2171,303.26,83.1411,276.9743,4.5287e-05,4.33e-06,0.0,0 STARLINK-5271,1 54194U 22141AP  24009.08284953  .00000433  00000-0  45287-4 0  9997,2 54194  53.2171 303.2600 0001424  83.1411 276.9743 15.08840180 66877,6917.88,95.438,540.73,538.76,0.0
54194.0,STARLINK-5271,PAYLOAD,2024-01-09 22:39:18,15.08848112,0.0001362,53.2171,299.3924,101.8344,258.2801,3.0222e-05,1.93e-06,0.0,0 STARLINK-5271,1 54194U 22141AP  24009.94396372  .00000193  00000-0  30222-4 0  9997,2 54194  53.2171 299.3924 0001362 101.8344 258.2801 15.08848112 66775,6917.856,95.437,540.663,538.778,0.0
54194.0,STARLINK-5271,PAYLOAD,2024-01-10 01:50:04,15.08852245,0.0001402,53.2173,298.7978,91.8798,268.2355,7.3196e-05,8.78e-06,0.0,0 STARLINK-5271,1 54194U 22141AP  24010.07644046  .00000878  00000-0  73196-4 0  9994,2 54194  53.2173 298.7978 0001402  91.8798 268.2355 15.08852245 67021,6917.843,95.437,540.678,538.738,0.0
54194.0,STARLINK-5271,PAYLOAD,2024-01-10 19:19:19,15.0883819,0.0001471,53.2172,295.5273,74.001,286.1144,6.1554e-05,6.92e-06,0.0,0 STARLINK-5271,1 54194U 22141AP  24010.80509205  .00000692  00000-0  61554-4 0  9991,2 54194  53.2172 295.5273 0001471  74.0010 286.1144 15.08838190 67139,6917.886,95.438,540.769,538.733,0.0
54194.0,STARLINK-5271,PAYLOAD,2024-01-11 01:40:52,15.08840431,0.0001368,53.2168,294.3371,85.4061,274.7087,7.6983e-05,9.37e-06,0.0,0 STARLINK-5271,1 54194U 22141AP  24011.07005004  .00000937  00000-0  76983-4 0  9993,2 54194  53.2168 294.3371 0001368  85.4061 274.7087 15.08840431 66945,6917.879,95.438,540.69,538.798,0.0
54194.0,STARLINK-5271,PAYLOAD,2024-01-11 22:20:53,15.08839689,0.000142,53.2169,290.4711,91.561,268.5545,2.771e-06,-2.44e-06,0.0,0 STARLINK-5271,1 54194U 22141AP  24011.93117095 -.00000244  00000-0  27710-5 0  9999,2 54194  53.2169 290.4711 0001420  91.5610 268.5545 15.08839689 67076,6917.881,95.438,540.729,538.764,0.0
54194.0,STARLINK-5271,PAYLOAD,2024-01-11 23:56:16,15.08843306,0.0001391,53.2169,290.1735,90.9483,269.1668,5.4065e-05,5.73e-06,0.0,0 STARLINK-5271,1 54194U 22141AP  24011.99740894  .00000573  00000-0  54065-4 0  9990,2 54194  53.2169 290.1735 0001391  90.9483 269.1668 15.08843306 67318,6917.87,95.437,540.698,538.773,0.0
54194.0,STARLINK-5271,PAYLOAD,2024-01-12 22:11:40,15.08833056,0.00014,53.2175,286.0124,69.6589,290.4553,7.0062e-05,8.27e-06,0.0,0 STARLINK-5271,1 54194U 22141AP  24012.92477874  .00000827  00000-0  70062-4 0  9996,2 54194  53.2175 286.0124 0001400  69.6589 290.4553 15.08833056 67223,6917.902,95.438,540.735,538.798,0.0
54194.0,STARLINK-5271,PAYLOAD,2024-01-13 02:57:50,15.08839059,0.0001359,53.2168,285.1188,84.3216,275.7931,0.00011507,1.544e-05,0.0,0 STARLINK-5271,1 54194U 22141AP  24013.12349541  .00001544  00000-0  11507-3 0  9993,2 54194  53.2168 285.1188 0001359  84.3216 275.7931 15.08839059 67482,6917.883,95.438,540.688,538.808,0.0
54194.0,STARLINK-5271,PAYLOAD,2024-01-14 02:48:36,15.08856556,0.0001335,53.216,280.6587,90.2473,269.8672,-4.4731e-05,-1e-05,0.0,0 STARLINK-5271,1 54194U 22141AP  24014.11708724 -.00001000  00000-0 -44731-4 0  9990,2 54194  53.2160 280.6587 0001335  90.2473 269.8672 15.08856556 67636,6917.83,95.437,540.618,538.771,0.0
54194.0,STARLINK-5271,PAYLOAD,2024-01-14 17:07:05,15.08843041,0.0001423,53.2157,277.9838,81.665,278.4504,0.00012782,1.747e-05,0.0,0 STARLINK-5271,1 54194U 22141AP  24014.71325661  .00001747  00000-0  12782-3 0  9997,2 54194  53.2157 277.9838 0001423  81.6650 278.4504 15.08843041 67724,6917.871,95.437,540.721,538.752,0.0
54194.0,STARLINK-5271,PAYLOAD,2024-01-14 21:53:14,15.08843138,0.0001387,53.2156,277.0919,79.3083,280.8065,0.00012958,1.775e-05,0.0,0 STARLINK-5271,1 54194U 22141AP  24014.91197556  .00001775  00000-0  12958-3 0  9995,2 54194  53.2156 277.0919 0001387  79.3083 280.8065 15.08843138 67521,6917.871,95.437,540.695,538.776,0.0
54194.0,STARLINK-5271,PAYLOAD,2024-01-15 02:39:23,15.08856654,0.0001501,53.2164,276.1973,85.0802,275.0362,0.00028205,4.206e-05,0.0,0 STARLINK-5271,1 54194U 22141AP  24015.11068758  .00004206  00000-0  28205-3 0  9993,2 54194  53.2164 276.1973 0001501  85.0802 275.0362 15.08856654 67782,6917.829,95.437,540.733,538.656,0.0
54194.0,STARLINK-5271,PAYLOAD,2024-01-15 16:57:52,15.08833528,0.0001383,53.2161,273.5209,91.325,268.79,-0.00014795,-2.641e-05,0.0,0 STARLINK-5271,1 54194U 22141AP  24015.70686071 -.00002641  00000-0 -14795-3 0  9994,2 54194  53.2161 273.5209 0001383  91.3250 268.7900 15.08833528 67879,6917.9,95.438,540.722,538.808,0.0
54194.0,STARLINK-5271,PAYLOAD,2024-01-15 20:08:39,15.08832266,0.0001363,53.216,272.9266,83.3315,276.7833,-0.00013839,-2.489e-05,0.0,0 STARLINK-5271,1 54194U 22141AP  24015.83934222 -.00002489  00000-0 -13839-3 0  9990,2 54194  53.2160 272.9266 0001363  83.3315 276.7833 15.08832266 67664,6917.904,95.438,540.712,538.826,0.0
54194.0,STARLINK-5271,PAYLOAD,2024-01-16 02:30:11,15.08834499,0.000134,53.2159,271.7366,84.2001,275.9144,-8.0418e-05,-1.567e-05,0.0,0 STARLINK-5271,1 54194U 22141AP  24016.10430212 -.00001567  00000-0 -80418-4 0  9995,2 54194  53.2159 271.7366 0001340  84.2001 275.9144 15.08834499 67708,6917.897,95.438,540.689,538.835,0.0
54194.0,STARLINK-5271,PAYLOAD,2024-01-16 19:59:25,15.08848224,0.000131,53.2159,268.4638,100.6223,259.4917,0.00010812,1.434e-05,0.0,0 STARLINK-5271,1 54194U 22141AP  24016.83293559  .00001434  00000-0  10812-3 0  9997,2 54194  53.2159 268.4638 0001310 100.6223 259.4917 15.08848224 68043,6917.855,95.437,540.626,538.814,0.0
54194.0,STARLINK-5271,PAYLOAD,2024-01-16 21:34:48,15.08852526,0.000135,53.2161,268.1669,85.9234,274.1913,0.00015406,2.166e-05,0.0,0 STARLINK-5271,1 54194U 22141AP  24016.89917414  .00002166  00000-0  15406-3 0  9993,2 54194  53.2161 268.1669 0001350  85.9234 274.1913 15.08852526 67823,6917.842,95.437,540.641,538.773,0.0
54194.0,STARLINK-5271,PAYLOAD,2024-01-16 23:10:11,15.08856294,0.0001429,53.2155,267.8698,85.8812,274.2343,0.00023455,3.449e-05,0.0,0 STARLINK-5271,1 54194U 22141AP  24016.96541248  .00003449  00000-0  23455-3 0  9997,2 54194  53.2155 267.8698 0001429  85.8812 274.2343 15.08856294 68063,6917.831,95.437,540.684,538.707,0.0
54194.0,STARLINK-5271,PAYLOAD,2024-01-17 19:50:12,15.08845026,0.0002038,53.2158,264.0034,122.4393,237.6797,0.00019976,2.893e-05,0.0,0 STARLINK-5271,1 54194U 22141AP  24017.82653718  .00002893  00000-0  19976-3 0  9994,2 54194  53.2158 264.0034 0002038 122.4393 237.6797 15.08845026 68199,6917.865,95.437,541.14,538.32,0.0
54194.0,STARLINK-5271,PAYLOAD,2024-01-17 21:25:36,15.08845432,0.0001287,53.2155,263.7072,88.1276,271.9863,0.00023354,3.431e-05,0.0,0 STARLINK-5271,1 54194U 22141AP  24017.89277892  .00003431  00000-0  23354-3 0  9990,2 54194  53.2155 263.7072 0001287  88.1276 271.9863 15.08845432 67978,6917.864,95.437,540.619,538.838,0.0
54194.0,STARLINK-5271,PAYLOAD,2024-01-17 23:00:59,15.08848365,0.0001301,53.2153,263.4091,97.5198,262.5942,0.00028495,4.251e-05,0.0,0 STARLINK-5271,1 54194U 22141AP  24017.95901748  .00004251  00000-0  28495-3 0  9993,2 54194  53.2153 263.4091 0001301  97.5198 262.5942 15.08848365 67981,6917.855,95.437,540.62,538.82,0.0
54194.0,STARLINK-5271,PAYLOAD,2024-01-18 19:41:00,15.08832934,0.0001647,53.2164,259.5404,114.3277,245.7887,-4.3816e-05,-9.85e-06,0.0,0 STARLINK-5271,1 54194U 22141AP  24018.82014218 -.00000985  00000-0 -43816-4 0  9994,2 54194  53.2164 259.5404 0001647 114.3277 245.7887 15.08832934 68343,6917.902,95.438,540.906,538.628,0.0
54194.0,STARLINK-5271,PAYLOAD,2024-01-18 21:16:23,15.08835621,0.0001646,53.2164,259.2431,114.7401,245.3762,-5.3329e-05,-1.137e-05,0.0,0 STARLINK-5271,1 54194U 22141AP  24018.88638202 -.00001137  00000-0 -53329-4 0  9995,2 54194  53.2164 259.2431 0001646 114.7401 245.3762 15.08835621 68122,6917.894,95.438,540.897,538.62,0.0
54194.0,STARLINK-5271,PAYLOAD,2024-01-19 02:02:33,15.08836036,0.0001493,53.2159,258.3529,95.2143,264.902,2.7989e-05,1.57e-06,0.0,0 STARLINK-5271,1 54194U 22141AP  24019.08510495  .00000157  00000-0  27989-4 0  9993,2 54194  53.2159 258.3529 0001493  95.2143 264.9020 15.08836036 68158,6917.893,95.438,540.79,538.725,0.0
54194.0,STARLINK-5271,PAYLOAD,2024-01-19 21:07:10,15.08851827,0.0001289,53.2155,254.786,97.0974,263.0165,0.00049224,7.557e-05,0.0,0 STARLINK-5271,1 54194U 22141AP  24019.87998315  .00007557  00000-0  49224-3 0  9997,2 54194  53.2155 254.7860 0001289  97.0974 263.0165 15.08851827 68275,6917.844,95.437,540.601,538.818,0.0
54194.0,STARLINK-5271,PAYLOAD,2024-01-20 19:22:34,15.08843702,0.000121,53.2153,250.6234,58.498,301.613,0.00014406,2.006e-05,0.0,0 STARLINK-5271,1 54194U 22141AP  24020.80734445  .00002006  00000-0  14406-3 0  9992,2 54194  53.2153 250.6234 0001210  58.4980 301.6130 15.08843702 68640,6917.869,95.437,540.571,538.897,0.0
54194.0,STARLINK-5271,PAYLOAD,2024-01-20 22:33:20,15.08838605,0.0001305,53.2149,250.0291,83.5991,276.515,-1.1596e-05,-4.72e-06,0.0,0 STARLINK-5271,1 54194U 22141AP  24020.93982506 -.00000472  00000-0 -11596-4 0  9994,2 54194  53.2149 250.0291 0001305  83.5991 276.5150 15.08838605 68433,6917.885,95.438,540.652,538.847,0.0
54194.0,STARLINK-5271,PAYLOAD,2024-01-21 00:08:44,15.08839081,0.0001269,53.2144,249.7316,87.7175,272.3962,1.6167e-05,-3.1e-07,0.0,0 STARLINK-5271,1 54194U 22141AP  24021.00606497 -.00000031  00000-0  16167-4 0  9994,2 54194  53.2144 249.7316 0001269  87.7175 272.3962 15.08839081 68445,6917.883,95.438,540.626,538.87,0.0
54194.0,STARLINK-5271,PAYLOAD,2024-01-21 19:13:20,15.08856523,0.0001194,53.2144,246.1656,80.1987,279.914,0.00018494,2.658e-05,0.0,0 STARLINK-5271,1 54194U 22141AP  24021.80093495  .00002658  00000-0  18494-3 0  9990,2 54194  53.2144 246.1656 0001194  80.1987 279.9140 15.08856523 68797,6917.83,95.437,540.521,538.869,0.0
